start=new Date('2021-08-24T00:00:00.000Z').valueOf();
sats=[{"MEAN_MOTION_DDOT":"0.0000000000000","FILE":"3102124","COUNTRY_CODE":"US","CENTER_NAME":"EARTH","MEAN_ANOMALY":"267.5785","LAUNCH_DATE":"2020-06-13","OBJECT_TYPE":"PAYLOAD","TLE_LINE1":"1 45775U 20038AX  21235.88761305  .00000300  00000-0  39067-4 0  9994","GP_ID":"183328458","MEAN_MOTION_DOT":"0.00000300","OBJECT_NAME":"STARLINK-1488","RA_OF_ASC_NODE":"83.2759","CLASSIFICATION_TYPE":"U","OBJECT_ID":"2020-038AX","NORAD_CAT_ID":"45775","EPHEMERIS_TYPE":"0","ARG_OF_PERICENTER":"92.5397","MEAN_ELEMENT_THEORY":"SGP4","APOAPSIS":"548.418","BSTAR":"0.00003906700000","ECCENTRICITY":"0.00016860","REV_AT_EPOCH":"6674","REF_FRAME":"TEME","TLE_LINE2":"2 45775  53.0544  83.2759 0001686  92.5397 267.5785 15.06388129 66747","PERIAPSIS":"546.082","SITE":"AFETR","PERIOD":"95.593","RCS_SIZE":"LARGE","DECAY_DATE":null,"MEAN_MOTION":"15.06388129","ELEMENT_SET_NO":"999","TIME_SYSTEM":"UTC","INCLINATION":"53.0544","SEMIMAJOR_AXIS":"6925.385","EPOCH":"2021-08-23T21:18:09.767520"},{"MEAN_ELEMENT_THEORY":"SGP4","ARG_OF_PERICENTER":"87.5109","EPHEMERIS_TYPE":"0","BSTAR":"0.00008672800000","APOAPSIS":"548.712","NORAD_CAT_ID":"45776","REF_FRAME":"TEME","TLE_LINE2":"2 45776  53.0556  83.2521 0002152  87.5109 272.6126 15.06397310 66740","ECCENTRICITY":"0.00021520","REV_AT_EPOCH":"6674","RCS_SIZE":"LARGE","PERIOD":"95.592","PERIAPSIS":"545.731","SITE":"AFETR","INCLINATION":"53.0556","EPOCH":"2021-08-23T21:28:45.513408","SEMIMAJOR_AXIS":"6925.357","ELEMENT_SET_NO":"999","DECAY_DATE":null,"MEAN_MOTION":"15.06397310","TIME_SYSTEM":"UTC","CENTER_NAME":"EARTH","FILE":"3102124","MEAN_MOTION_DDOT":"0.0000000000000","COUNTRY_CODE":"US","OBJECT_TYPE":"PAYLOAD","LAUNCH_DATE":"2020-06-13","TLE_LINE1":"1 45776U 20038AY  21235.89497122  .00001010  00000-0  86728-4 0  9994","MEAN_ANOMALY":"272.6126","OBJECT_NAME":"STARLINK-1489","RA_OF_ASC_NODE":"83.2521","GP_ID":"183328709","MEAN_MOTION_DOT":"0.00001010","OBJECT_ID":"2020-038AY","CLASSIFICATION_TYPE":"U"},{"TIME_SYSTEM":"UTC","DECAY_DATE":null,"MEAN_MOTION":"15.06392205","ELEMENT_SET_NO":"999","SEMIMAJOR_AXIS":"6925.372","EPOCH":"2021-08-23T21:23:27.575232","INCLINATION":"53.0551","SITE":"AFETR","PERIAPSIS":"545.778","PERIOD":"95.593","RCS_SIZE":"LARGE","REV_AT_EPOCH":"6674","ECCENTRICITY":"0.00021080","TLE_LINE2":"2 45777  53.0551  83.2616 0002108  90.4574 269.6656 15.06392205 66743","REF_FRAME":"TEME","NORAD_CAT_ID":"45777","APOAPSIS":"548.697","BSTAR":"-0.00004837800000","EPHEMERIS_TYPE":"0","ARG_OF_PERICENTER":"90.4574","MEAN_ELEMENT_THEORY":"SGP4","CLASSIFICATION_TYPE":"U","OBJECT_ID":"2020-038AZ","MEAN_MOTION_DOT":"-0.00001002","GP_ID":"183328960","RA_OF_ASC_NODE":"83.2616","OBJECT_NAME":"STARLINK-1490","MEAN_ANOMALY":"269.6656","TLE_LINE1":"1 45777U 20038AZ  21235.89129138 -.00001002  00000-0 -48378-4 0  9996","LAUNCH_DATE":"2020-06-13","OBJECT_TYPE":"PAYLOAD","COUNTRY_CODE":"US","MEAN_MOTION_DDOT":"0.0000000000000","FILE":"3102124","CENTER_NAME":"EARTH"},{"OBJECT_ID":"2020-038BA","CLASSIFICATION_TYPE":"U","OBJECT_NAME":"STARLINK-1491","RA_OF_ASC_NODE":"83.0528","GP_ID":"183328209","MEAN_MOTION_DOT":"-0.00001190","OBJECT_TYPE":"PAYLOAD","LAUNCH_DATE":"2020-06-13","TLE_LINE1":"1 45778U 20038BA  21235.93920897 -.00001190  00000-0 -61015-4 0  9994","MEAN_ANOMALY":"276.5158","CENTER_NAME":"EARTH","FILE":"3102124","MEAN_MOTION_DDOT":"0.0000000000000","COUNTRY_CODE":"US","INCLINATION":"53.0561","EPOCH":"2021-08-23T22:32:27.655008","SEMIMAJOR_AXIS":"6925.377","ELEMENT_SET_NO":"999","DECAY_DATE":null,"MEAN_MOTION":"15.06390559","TIME_SYSTEM":"UTC","RCS_SIZE":"LARGE","PERIOD":"95.593","PERIAPSIS":"545.683","SITE":"AFETR","REF_FRAME":"TEME","TLE_LINE2":"2 45778  53.0561  83.0528 0002252  83.6087 276.5158 15.06390559 66731","ECCENTRICITY":"0.00022520","REV_AT_EPOCH":"6673","MEAN_ELEMENT_THEORY":"SGP4","ARG_OF_PERICENTER":"83.6087","EPHEMERIS_TYPE":"0","BSTAR":"-0.00006101500000","APOAPSIS":"548.802","NORAD_CAT_ID":"45778"},{"RA_OF_ASC_NODE":"83.3657","OBJECT_NAME":"STARLINK-1492","MEAN_MOTION_DOT":"-0.00001168","GP_ID":"183327958","OBJECT_ID":"2020-038BB","CLASSIFICATION_TYPE":"U","CENTER_NAME":"EARTH","COUNTRY_CODE":"US","MEAN_MOTION_DDOT":"0.0000000000000","FILE":"3102124","TLE_LINE1":"1 45779U 20038BB  21235.86917143 -.00001168  00000-0 -59519-4 0  9998","LAUNCH_DATE":"2020-06-13","OBJECT_TYPE":"PAYLOAD","MEAN_ANOMALY":"264.9719","PERIOD":"95.593","RCS_SIZE":"LARGE","SITE":"AFETR","PERIAPSIS":"545.891","SEMIMAJOR_AXIS":"6925.374","EPOCH":"2021-08-23T20:51:36.411552","INCLINATION":"53.0551","TIME_SYSTEM":"UTC","MEAN_MOTION":"15.06391732","DECAY_DATE":null,"ELEMENT_SET_NO":"999","APOAPSIS":"548.587","BSTAR":"-0.00005951900000","EPHEMERIS_TYPE":"0","MEAN_ELEMENT_THEORY":"SGP4","ARG_OF_PERICENTER":"95.1492","NORAD_CAT_ID":"45779","TLE_LINE2":"2 45779  53.0551  83.3657 0001946  95.1492 264.9719 15.06391732 66721","REF_FRAME":"TEME","REV_AT_EPOCH":"6672","ECCENTRICITY":"0.00019460"},{"SEMIMAJOR_AXIS":"6925.369","EPOCH":"2021-08-23T21:07:32.098368","INCLINATION":"53.0548","TIME_SYSTEM":"UTC","MEAN_MOTION":"15.06393219","DECAY_DATE":null,"ELEMENT_SET_NO":"999","PERIOD":"95.593","RCS_SIZE":"LARGE","SITE":"AFETR","PERIAPSIS":"545.745","TLE_LINE2":"2 45780  53.0548  83.3151 0002151  87.6494 272.4742 15.06393219 66727","REF_FRAME":"TEME","REV_AT_EPOCH":"6672","ECCENTRICITY":"0.00021510","APOAPSIS":"548.724","BSTAR":"-0.00006893700000","EPHEMERIS_TYPE":"0","ARG_OF_PERICENTER":"87.6494","MEAN_ELEMENT_THEORY":"SGP4","NORAD_CAT_ID":"45780","OBJECT_ID":"2020-038BC","CLASSIFICATION_TYPE":"U","RA_OF_ASC_NODE":"83.3151","OBJECT_NAME":"STARLINK-1496","MEAN_MOTION_DOT":"-0.00001308","GP_ID":"183329210","TLE_LINE1":"1 45780U 20038BC  21235.88023262 -.00001308  00000-0 -68937-4 0  9992","LAUNCH_DATE":"2020-06-13","OBJECT_TYPE":"PAYLOAD","MEAN_ANOMALY":"272.4742","CENTER_NAME":"EARTH","COUNTRY_CODE":"US","MEAN_MOTION_DDOT":"0.0000000000000","FILE":"3102124"},{"RCS_SIZE":"LARGE","PERIOD":"95.593","PERIAPSIS":"545.826","SITE":"AFETR","INCLINATION":"53.0543","EPOCH":"2021-08-23T20:09:08.818560","SEMIMAJOR_AXIS":"6925.373","ELEMENT_SET_NO":"999","DECAY_DATE":null,"MEAN_MOTION":"15.06391923","TIME_SYSTEM":"UTC","ARG_OF_PERICENTER":"92.7153","MEAN_ELEMENT_THEORY":"SGP4","EPHEMERIS_TYPE":"0","BSTAR":"0.00006363400000","APOAPSIS":"548.650","NORAD_CAT_ID":"45781","REF_FRAME":"TEME","TLE_LINE2":"2 45781  53.0543  83.5005 0002039  92.7153 267.4069 15.06391923 66723","ECCENTRICITY":"0.00020390","REV_AT_EPOCH":"6672","OBJECT_NAME":"STARLINK-1497","RA_OF_ASC_NODE":"83.5005","GP_ID":"183329461","MEAN_MOTION_DOT":"0.00000666","OBJECT_ID":"2020-038BD","CLASSIFICATION_TYPE":"U","CENTER_NAME":"EARTH","FILE":"3102124","MEAN_MOTION_DDOT":"0.0000000000000","COUNTRY_CODE":"US","OBJECT_TYPE":"PAYLOAD","LAUNCH_DATE":"2020-06-13","TLE_LINE1":"1 45781U 20038BD  21235.83968540  .00000666  00000-0  63634-4 0  9998","MEAN_ANOMALY":"267.4069"},{"CLASSIFICATION_TYPE":"U","OBJECT_ID":"2020-038BE","MEAN_MOTION_DOT":"0.00001025","GP_ID":"183327709","RA_OF_ASC_NODE":"83.2257","OBJECT_NAME":"STARLINK-1498","MEAN_ANOMALY":"272.0113","TLE_LINE1":"1 45782U 20038BE  21235.89864695  .00001025  00000-0  87677-4 0  9994","OBJECT_TYPE":"PAYLOAD","LAUNCH_DATE":"2020-06-13","COUNTRY_CODE":"US","FILE":"3102124","MEAN_MOTION_DDOT":"0.0000000000000","CENTER_NAME":"EARTH","TIME_SYSTEM":"UTC","ELEMENT_SET_NO":"999","MEAN_MOTION":"15.06405632","DECAY_DATE":null,"EPOCH":"2021-08-23T21:34:03.096480","SEMIMAJOR_AXIS":"6925.331","INCLINATION":"53.0549","SITE":"AFETR","PERIAPSIS":"545.810","RCS_SIZE":"LARGE","PERIOD":"95.592","REV_AT_EPOCH":"6674","ECCENTRICITY":"0.00020020","TLE_LINE2":"2 45782  53.0549  83.2257 0002002  88.1105 272.0113 15.06405632 66749","REF_FRAME":"TEME","NORAD_CAT_ID":"45782","BSTAR":"0.00008767700000","APOAPSIS":"548.583","ARG_OF_PERICENTER":"88.1105","MEAN_ELEMENT_THEORY":"SGP4","EPHEMERIS_TYPE":"0"},{"OBJECT_ID":"2020-038BF","CLASSIFICATION_TYPE":"U","OBJECT_NAME":"STARLINK-1505","RA_OF_ASC_NODE":"83.2049","GP_ID":"183328459","MEAN_MOTION_DOT":"0.00001015","LAUNCH_DATE":"2020-06-13","OBJECT_TYPE":"PAYLOAD","TLE_LINE1":"1 45783U 20038BF  21235.90232914  .00001015  00000-0  87041-4 0  9994","MEAN_ANOMALY":"264.2583","CENTER_NAME":"EARTH","MEAN_MOTION_DDOT":"0.0000000000000","FILE":"3102124","COUNTRY_CODE":"US","INCLINATION":"53.0538","SEMIMAJOR_AXIS":"6925.333","EPOCH":"2021-08-23T21:39:21.237696","DECAY_DATE":null,"MEAN_MOTION":"15.06405213","ELEMENT_SET_NO":"999","TIME_SYSTEM":"UTC","PERIOD":"95.592","RCS_SIZE":"LARGE","PERIAPSIS":"545.935","SITE":"AFETR","REF_FRAME":"TEME","TLE_LINE2":"2 45783  53.0538  83.2049 0001823  95.8614 264.2583 15.06405213 66746","ECCENTRICITY":"0.00018230","REV_AT_EPOCH":"6674","EPHEMERIS_TYPE":"0","ARG_OF_PERICENTER":"95.8614","MEAN_ELEMENT_THEORY":"SGP4","APOAPSIS":"548.460","BSTAR":"0.00008704100000","NORAD_CAT_ID":"45783"},{"PERIOD":"95.592","RCS_SIZE":"LARGE","PERIAPSIS":"545.811","SITE":"AFETR","INCLINATION":"53.0550","SEMIMAJOR_AXIS":"6925.331","EPOCH":"2021-08-23T21:02:12.780384","DECAY_DATE":null,"MEAN_MOTION":"15.06405625","ELEMENT_SET_NO":"999","TIME_SYSTEM":"UTC","EPHEMERIS_TYPE":"0","ARG_OF_PERICENTER":"75.7303","MEAN_ELEMENT_THEORY":"SGP4","APOAPSIS":"548.581","BSTAR":"0.00009350500000","NORAD_CAT_ID":"45784","REF_FRAME":"TEME","TLE_LINE2":"2 45784  53.0550  83.3288 0002000  75.7303 284.3907 15.06405625 66736","ECCENTRICITY":"0.00020000","REV_AT_EPOCH":"6673","OBJECT_NAME":"STARLINK-1510","RA_OF_ASC_NODE":"83.3288","GP_ID":"183328710","MEAN_MOTION_DOT":"0.00001112","OBJECT_ID":"2020-038BG","CLASSIFICATION_TYPE":"U","CENTER_NAME":"EARTH","MEAN_MOTION_DDOT":"0.0000000000000","FILE":"3102124","COUNTRY_CODE":"US","LAUNCH_DATE":"2020-06-13","OBJECT_TYPE":"PAYLOAD","TLE_LINE1":"1 45784U 20038BG  21235.87653681  .00001112  00000-0  93505-4 0  9999","MEAN_ANOMALY":"284.3907"}];
